0 ARIANE 1 DEB
1 17459U 86019GW  13282.10748725  .00039683  00000-0  25304-2 0  7296
2 17459 098.2444 096.0622 0007306 251.5407 108.5026 15.08569595429093
0 ARIANE 1 DEB
1 17459U 86019GW  13283.16872720  .00032697  00000-0  20840-2 0  7306
2 17459 098.2445 097.2012 0007231 247.7556 112.2904 15.08637286429257
0 ARIANE 1 DEB
1 17459U 86019GW  13283.76567983  .00035303  00000-0  22557-2 0  7320
2 17459 098.2440 097.8388 0007324 243.0175 117.0812 15.08645861429342
0 ARIANE 1 DEB
1 17459U 86019GW  13284.16359947  .00032133  00000-0  20456-2 0  7317
2 17459 098.2444 098.2691 0007147 244.7589 115.2897 15.08685238429400
0 ARIANE 1 DEB
1 17459U 86019GW  13285.42372428  .00027746  00000-0  17649-2 0  7321
2 17459 098.2440 099.6218 0007045 240.1602 119.8925 15.08750991429590
0 ARIANE 1 DEB
1 17459U 86019GW  13286.48483902  .00026823  00000-0  17041-2 0  7330
2 17459 098.2436 100.7606 0007003 236.2836 123.7724 15.08804085429752
0 ARIANE 1 DEB
1 17459U 86019GW  13287.74486427  .00038606  00000-0  24420-2 0  7347
2 17459 098.2431 102.1136 0007033 231.3654 128.6943 15.08874772429946
0 ARIANE 1 DEB
1 17459U 86019GW  13289.13744097  .00038854  00000-0  24509-2 0  7356
2 17459 098.2424 103.6088 0007073 227.2677 132.7954 15.08974007430158
0 ARIANE 1 DEB
1 17459U 86019GW  13290.13208832  .00036399  00000-0  22937-2 0  7366
2 17459 098.2422 104.6769 0007118 224.4964 135.5692 15.09027888430305
0 ARIANE 1 DEB
1 17459U 86019GW  13291.45822344  .00035397  00000-0  22260-2 0  7379
2 17459 098.2422 106.1011 0007079 221.3042 138.7650 15.09110175430504
0 ARIANE 1 DEB
1 17459U 86019GW  13292.78428671  .00035862  00000-0  22499-2 0  7383
2 17459 098.2429 107.5253 0007038 216.8286 143.2458 15.09194359430703
0 ARIANE 1 DEB
1 17459U 86019GW  13294.11027821  .00037686  00000-0  23584-2 0  7397
2 17459 098.2435 108.9497 0006852 212.5352 147.5453 15.09274272430902
0 ARIANE 1 DEB
1 17459U 86019GW  13295.17101870  .00039073  00000-0  24404-2 0  7407
2 17459 098.2439 110.0896 0006798 207.8988 152.1876 15.09337428431066
